QIANFAN-65              
1 62795U 25016L   25312.80907058  .00000048  00000+0  56118-4 0  9999
2 62795  88.9734 106.5668 0015574  83.1122 277.1800 13.50974794 42663
QIANFAN-66              
1 62796U 25016M   25312.83790073  .00000060  00000+0  73238-4 0  9996
2 62796  88.9754 106.5273 0016640  78.9288 281.3733 13.50978816 42715
QIANFAN-67              
1 62797U 25016N   25312.84202949  .00000044  00000+0  48951-4 0  9994
2 62797  88.9744 106.5558 0016669  85.1299 275.1755 13.50971602 42681
QIANFAN-68              
1 62798U 25016P   25312.83378380  .00000059  00000+0  71667-4 0  9993
2 62798  88.9748 106.6006 0016712  83.5871 276.7183 13.50973951 42661
QIANFAN-69              
1 62799U 25016Q   25312.85032529  .00000043  00000+0  48399-4 0  9997
2 62799  88.9726 106.4757 0017478  84.4286 275.8858 13.50971240 42702
QIANFAN-70              
1 62800U 25016R   25312.79252661  .00000072  00000+0  93163-4 0  9995
2 62800  88.9747 106.6129 0016989  75.8663 284.4375 13.50974362 42654
QIANFAN-71              
1 62801U 25016S   25312.78849860  .00000053  00000+0  63062-4 0  9992
2 62801  88.9741 106.5949 0017413  87.7867 272.5278 13.50974976 42650
QIANFAN-72              
1 62802U 25016T   25312.80497284  .00000055  00000+0  65680-4 0  9995
2 62802  88.9731 106.6099 0020700  94.2038 266.1479 13.50974855 42640
